METHANESAT              
1 59101U 24043D   25361.28114887  .00004143  00000+0  36581-3 0  9992
2 59101  97.8208 126.8769 0010050 221.2117 138.8347 14.96899998 98927
GOSAT-GW (IBUKI GW)     
1 64694U 25141A   25361.30507669  .00001200  00000+0  21992-3 0  9993
2 64694  98.0442 296.5549 0001466  82.1908 277.9463 14.67557386 26630
GHGSAT-C1               
1 46278U 20061G   25361.27656435  .00026947  00000+0  33857-3 0  9997
2 46278  97.2293  77.1552 0000987   2.6426 357.4836 15.59671997296587
GHGSAT-C12              
1 64529U 25135B   25361.25374030  .00004913  00000+0  23933-3 0  9992
2 64529  97.4609 112.9480 0006258  61.8487 298.3379 15.18793980 28713
GHGSAT-C13              
1 64548U 25135W   25361.20657884  .00004374  00000+0  20892-3 0  9991
2 64548  97.4635 113.2201 0001799  47.8078 312.3309 15.19560609 28725
GHGSAT-C2               
1 47509U 21006DA  25361.10566697  .00007890  00000+0  23225-3 0  9991
2 47509  97.2425  46.3266 0006956  73.4472 286.7536 15.35306909273422
GHGSAT-C3               
1 52737U 22057F   25361.31810580  .00008357  00000+0  27664-3 0  9993
2 52737  97.6345 136.1583 0006643  22.3750 337.7779 15.31565629199202
GHGSAT-C4               
1 52746U 22057Q   25361.33723145  .00008358  00000+0  27677-3 0  9990
2 52746  97.6273 135.1827 0006550   8.0944 352.0401 15.31555715199213
GHGSAT-C5               
1 52744U 22057N   25361.28924382  .00008107  00000+0  26860-3 0  9993
2 52744  97.6434 137.5018 0007521  17.3396 342.8100 15.31542594199204
GHGSAT-C6               
1 56204U 23054AC  25361.23566817  .00016874  00000+0  33204-3 0  9996
2 56204  97.3165 263.6260 0006443 323.4941  36.5869 15.47305494151813
GHGSAT-C7               
1 56209U 23054AH  25361.23729212  .00013642  00000+0  28491-3 0  9993
2 56209  97.3125 262.8123 0006763 313.7849  46.2841 15.45611632151794
GHGSAT-C8               
1 56186U 23054J   25361.27306100  .00016848  00000+0  33130-3 0  9995
2 56186  97.3132 263.0844 0005100 353.9617   6.1571 15.47332567151808
SENTINEL-5P             
1 42969U 17064A   25361.14597288  .00000114  00000+0  75239-4 0  9994
2 42969  98.7803 299.6036 0001064  91.1761 268.9537 14.19521182425159
ENMAP                   
1 52159U 22033C   25361.26132833  .00000825  00000+0  13015-3 0  9994
2 52159  97.9781  80.9664 0001250  84.3885 275.7467 14.74965229201316
PRISMA                  
1 44072U 19015A   25361.29914779  .00001426  00000+0  17919-3 0  9990
2 44072  97.8678  73.5476 0001221  86.8492 273.2862 14.83650321366568
SENTINEL-2A             
1 40697U 15028A   25361.32662743  .00000255  00000+0  11398-3 0  9998
2 40697  98.5723  73.6550 0001049  89.2258 270.9045 14.30811758549155
SENTINEL-2B             
1 42063U 17013A   25361.24946083  .00000250  00000+0  11197-3 0  9998
2 42063  98.5694  73.4905 0001169  90.5418 269.5899 14.30817062460055
SENTINEL-2C             
1 60989U 24157A   25361.21459599  .00000175  00000+0  83483-4 0  9994
2 60989  98.5665  73.4874 0001366 102.0401 258.0935 14.30818365 68397
LANDSAT 8               
1 39084U 13008A   25361.28297284  .00000469  00000+0  11405-3 0  9997
2 39084  98.2054  69.1405 0001055  94.4738 265.6581 14.57117215672861
LANDSAT 9               
1 49260U 21088A   25361.18009075  .00000523  00000+0  12601-3 0  9999
2 49260  98.2075  69.0804 0001103  93.7467 266.3858 14.57112985225956
